EUTELSAT 7A             
1 28187U 04008A   25241.57087073  .00000105  00000+0  00000+0 0  9993
2 28187   5.0839  75.4919 0001049 113.5450 215.2928  1.00273307 78424
EUTELSAT 174A           
1 28924U 05052A   25241.84699198  .00000012  00000+0  00000+0 0  9996
2 28924   3.4749  80.1581 0006139  75.7869 301.2842  1.00270358 49412
EUTELSAT HOTBIRD 13B    
1 29270U 06032A   25241.89049883  .00000159  00000+0  00000+0 0  9997
2 29270   0.9032  85.5162 0004049  67.5785 178.9017  1.00274180 44383
EUTELSAT HOTBIRD 13C    
1 33459U 08065A   25241.93794846 -.00000097  00000+0  00000+0 0  9992
2 33459   2.1957  82.6759 0003970  93.7544 127.1130  1.00272685 44428
EUTELSAT 36B            
1 36101U 09065A   25241.89396552  .00000116  00000+0  00000+0 0  9998
2 36101   0.0519 329.5042 0005829 188.7990 192.3534  1.00270277 57789
EUTELSAT KA-SAT 9A      
1 37258U 10069A   25241.88573215  .00000067  00000+0  00000+0 0  9995
2 37258   0.0495 319.8013 0004121 167.3766 179.0035  1.00282563 41089
EUTELSAT 7 WEST A       
1 37816U 11051A   25241.93794846 -.00000056  00000+0  00000+0 0  9997
2 37816   0.0709  25.6437 0005446 141.9707 141.1145  1.00272796 50969
EUTELSAT 16A            
1 37836U 11057A   25241.88711882  .00000107  00000+0  00000+0 0  9994
2 37836   0.0661   5.1120 0005394 152.8403 155.7216  1.00272394  4408
